[{"OBJECT_NAME":"STARLINK-5504","OBJECT_ID":"2023-094AW","EPOCH":"2026-03-09T21:47:24.707904","MEAN_MOTION":15.02707655,"ECCENTRICITY":0.00033243,"INCLINATION":43.0064,"RA_OF_ASC_NODE":16.061,"ARG_OF_PERICENTER":38.7007,"MEAN_ANOMALY":321.4073,"EPHEMERIS_TYPE":0,"CLASSIFICATION_TYPE":"U","NORAD_CAT_ID":57262,"ELEMENT_SET_NO":999,"REV_AT_EPOCH":14730,"BSTAR":0.0015648081,"MEAN_MOTION_DOT":0.00021096,"MEAN_MOTION_DDOT":0},{"OBJECT_NAME":"ATLAS 28E DEB","OBJECT_ID":"1990-031G","EPOCH":"2026-03-09T13:30:42.820704","MEAN_MOTION":15.01077751,"ECCENTRICITY":0.00267601,"INCLINATION":90.3468,"RA_OF_ASC_NODE":293.9289,"ARG_OF_PERICENTER":41.2715,"MEAN_ANOMALY":319.0536,"EPHEMERIS_TYPE":0,"CLASSIFICATION_TYPE":"U","NORAD_CAT_ID":20575,"ELEMENT_SET_NO":999,"REV_AT_EPOCH":38014,"BSTAR":0.00040945673,"MEAN_MOTION_DOT":5.29e-5,"MEAN_MOTION_DDOT":0}]
